[
    {
        "Altitude(m)": 702964.1724391142,
        "Argument of Periapsis(deg)": 0.011390121186627068,
        "Eccentricity": 0.0,
        "Inclination(deg)": 45.0,
        "Latitude(deg)": 19.38070984173914,
        "Longitude(deg)": 14.706444333159919,
        "Mean Anomaly(deg)": 27.896816647480808,
        "RAAN(deg)": 94.9892480585418,
        "Satellite Name": "Constellation 1 419",
        "Satellite Number": 419,
        "Semi-Major Axis(m)": 7083131.272910544,
        "Time(s)": 190
    },
    {
        "Altitude(m)": 702967.260144263,
        "Argument of Periapsis(deg)": 0.011450069192872472,
        "Eccentricity": 0.0,
        "Inclination(deg)": 45.0,
        "Latitude(deg)": 19.421160366901017,
        "Longitude(deg)": 14.750491520884262,
        "Mean Anomaly(deg)": 27.95751778773072,
        "RAAN(deg)": 94.98919146937624,
        "Satellite Name": "Constellation 1 419",
        "Satellite Number": 419,
        "Semi-Major Axis(m)": 7083131.272910544,
        "Time(s)": 191
    },
    {
        "Altitude(m)": 702970.3622229074,
        "Argument of Periapsis(deg)": 0.01151001719911788,
        "Eccentricity": 0.0,
        "Inclination(deg)": 45.0,
        "Latitude(deg)": 19.461597960004678,
        "Longitude(deg)": 14.794562547527429,
        "Mean Anomaly(deg)": 28.018218927980648,
        "RAAN(deg)": 94.98913488021067,
        "Satellite Name": "Constellation 1 419",
        "Satellite Number": 419,
        "Semi-Major Axis(m)": 7083131.272910544,
        "Time(s)": 192
    },
    {
        "Altitude(m)": 702973.4786442193,
        "Argument of Periapsis(deg)": 0.011569965205363285,
        "Eccentricity": 0.0,
        "Inclination(deg)": 45.0,
        "Latitude(deg)": 19.502022585743617,
        "Longitude(deg)": 14.83865730277553,
        "Mean Anomaly(deg)": 28.07892006823052,
        "RAAN(deg)": 94.9890782910451,
        "Satellite Name": "Constellation 1 419",
        "Satellite Number": 419,
        "Semi-Major Axis(m)": 7083131.272910544,
        "Time(s)": 193
    },
    {
        "Altitude(m)": 702976.6093773274,
        "Argument of Periapsis(deg)": 0.01162991321160869,
        "Eccentricity": 0.0,
        "Inclination(deg)": 45.0,
        "Latitude(deg)": 19.542434208765204,
        "Longitude(deg)": 14.882776180635124,
        "Mean Anomaly(deg)": 28.139621208480417,
        "RAAN(deg)": 94.98902170187952,
        "Satellite Name": "Constellation 1 419",
        "Satellite Number": 419,
        "Semi-Major Axis(m)": 7083131.272910544,
        "Time(s)": 194
    },
    {
        "Altitude(m)": 702979.754391293,
        "Argument of Periapsis(deg)": 0.011689861217854095,
        "Eccentricity": 0.0,
        "Inclination(deg)": 45.0,
        "Latitude(deg)": 19.582832793668608,
        "Longitude(deg)": 14.926919070850332,
        "Mean Anomaly(deg)": 28.200322348730307,
        "RAAN(deg)": 94.98896511271396,
        "Satellite Name": "Constellation 1 419",
        "Satellite Number": 419,
        "Semi-Major Axis(m)": 7083131.272910544,
        "Time(s)": 195
    },
    {
        "Altitude(m)": 702982.9136551277,
        "Argument of Periapsis(deg)": 0.0117498092240995,
        "Eccentricity": 0.0,
        "Inclination(deg)": 45.0,
        "Latitude(deg)": 19.623218305005924,
        "Longitude(deg)": 14.971086031291463,
        "Mean Anomaly(deg)": 28.26102348898023,
        "RAAN(deg)": 94.98890852354837,
        "Satellite Name": "Constellation 1 419",
        "Satellite Number": 419,
        "Semi-Major Axis(m)": 7083131.272910544,
        "Time(s)": 196
    },
    {
        "Altitude(m)": 702986.0871377871,
        "Argument of Periapsis(deg)": 0.011809757230344905,
        "Eccentricity": 0.0,
        "Inclination(deg)": 45.0,
        "Latitude(deg)": 19.66359070728174,
        "Longitude(deg)": 15.015277119857576,
        "Mean Anomaly(deg)": 28.321724629230104,
        "RAAN(deg)": 94.98885193438282,
        "Satellite Name": "Constellation 1 419",
        "Satellite Number": 419,
        "Semi-Major Axis(m)": 7083131.272910544,
        "Time(s)": 197
    },
    {
        "Altitude(m)": 702989.2748081766,
        "Argument of Periapsis(deg)": 0.011869705236590313,
        "Eccentricity": 0.0,
        "Inclination(deg)": 45.0,
        "Latitude(deg)": 19.70394996495309,
        "Longitude(deg)": 15.059492394476598,
        "Mean Anomaly(deg)": 28.382425769480026,
        "RAAN(deg)": 94.98879534521726,
        "Satellite Name": "Constellation 1 419",
        "Satellite Number": 419,
        "Semi-Major Axis(m)": 7083131.272910544,
        "Time(s)": 198
    },
    {
        "Altitude(m)": 702992.4766351369,
        "Argument of Periapsis(deg)": 0.011929653242835719,
        "Eccentricity": 0.0,
        "Inclination(deg)": 45.0,
        "Latitude(deg)": 19.74429604242919,
        "Longitude(deg)": 15.103731913105118,
        "Mean Anomaly(deg)": 28.443126909729916,
        "RAAN(deg)": 94.98873875605167,
        "Satellite Name": "Constellation 1 419",
        "Satellite Number": 419,
        "Semi-Major Axis(m)": 7083131.272910544,
        "Time(s)": 199
    }
]